ISS (ZARYA)
1 25544U 98067A  26050.82880434  .00062824  00000+0  11723-2 0  9997
2 25544  51.6323 160.6397 0008552 112.9938 247.1953 15.48149648553685

POISK
1 36086U 09060A  26059.21983326  .00010172  00000+0  19675-3 0  9995
2 36086  51.6325 119.1716 0008306 141.5469 218.6112 15.48355484554440

ISS (NAUKA)
1 49044U 21066A  26059.21983326  .00010172  00000+0  19675-3 0  9993
2 49044  51.6325 119.1716 0008306 141.5469 218.6112 15.48355484554459

CSS (TIANHE)
1 48274U 21035A  26059.24332133  .00022938  00000+0  27649-3 0  9993
2 48274  41.4655 265.6207 0006303 213.2010 146.8433 15.60219288276131

CSS (WENTIAN)
1 53239U 22085A  26059.24332133  .00022938  00000+0  27649-3 0  9996
2 53239  41.4655 265.6207 0006303 213.2010 146.8433 15.60219288275610

CSS (MENGTIAN)
1 54216U 22143A  26059.24332133  .00022938  00000+0  27649-3 0  9997
2 54216  41.4655 265.6207 0006303 213.2010 146.8433 15.60219288275582

HST (HUBBLE)
1 20580U 90037B   24040.67243056  .00001095  00000-0  56277-4 0  9998
2 20580  28.4697 100.9416 0002517 266.3685  93.6666 15.09756059885141

AQUA
1 27424U 02022A   24040.57945602  .00000199  00000-0  48312-4 0  9998
2 27424  98.2435 152.0163 0001717  68.2163 291.9213 14.57143169160533

TERRA
1 25994U 99068A   24040.51868056  .00000300  00000-0  71101-4 0  9999
2 25994  98.1751 154.5518 0001928  80.2017 280.0076 14.57468164286782

SMAP
1 40376U 15003A   24040.54045139  .00000143  00000-0  34139-4 0  9993
2 40376  98.1158 128.4714 0000845  78.2917  44.7578 14.86906233481232